COMMENT,ORIGINATOR,NORAD_CAT_ID,OBJECT_NAME,OBJECT_TYPE,CLASSIFICATION_TYPE,INTLDES,EPOCH,EPOCH_MICROSECONDS,MEAN_MOTION,ECCENTRICITY,INCLINATION,RA_OF_ASC_NODE,ARG_OF_PERICENTER,MEAN_ANOMALY,EPHEMERIS_TYPE,ELEMENT_SET_NO,REV_AT_EPOCH,BSTAR,MEAN_MOTION_DOT,MEAN_MOTION_DDOT,FILE,TLE_LINE0,TLE_LINE1,TLE_LINE2,OBJECT_ID,OBJECT_NUMBER,SEMIMAJOR_AXIS,PERIOD,APOGEE,PERIGEE
"GENERATED VIA SPACETRACK.ORG API","JSPOC","23192","DIRECTV 2 (DBS 2)","PAYLOAD","U","94047A","2016-01-14 12:12:19","686816","0.98634559","0.0012774","7.539","51.9551","235.6502","302.836","0","999","8812","0","-1.15e-06","0","1980322","0 DIRECTV 2 (DBS 2)","1 23192U 94047A   16014.50856119 -.00000115  00000-0  00000+0 0  9995","2 23192   7.5390  51.9551 0012774 235.6502 302.8360  0.98634559 88123","1994-047A","23192","42630.042","1459.934","36306.363","36197.452"
"GENERATED VIA SPACETRACK.ORG API","JSPOC","39227","KOMPSAT 5","PAYLOAD","U","13042A","2016-01-14 12:12:29","753280","15.04533772","0.0002576","97.5998","201.6828","92.3303","352.1907","0","999","13155","7.1914e-05","9.47e-06","0","1980170","0 KOMPSAT 5","1 39227U 13042A   16014.50867770  .00000947  00000-0  71914-4 0  9991","2 39227  97.5998 201.6828 0002576  92.3303 352.1907 15.04533772131558","2013-042A","39227","6931.074","95.710","554.724","551.153"
"GENERATED VIA SPACETRACK.ORG API","JSPOC","12297","COSMOS 1244","PAYLOAD","U","81013A","2016-01-14 12:12:30","293280","13.7495183","0.003084","82.951","21.9832","16.0996","95.3757","0","999","39634","1.9911e-05","3.4e-07","0","1980197","0 COSMOS 1244","1 12297U 81013A   16014.50868395  .00000034  00000-0  19911-4 0  9992","2 12297  82.9510  21.9832 0030840  16.0996  95.3757 13.74951830396341","1981-013A","12297","7359.983","104.730","1004.546","959.150"
"GENERATED VIA SPACETRACK.ORG API","JSPOC","22687","COSMOS 2252","PAYLOAD","U","93038A","2016-01-14 12:12:33","364800","12.6323573","0.0007204","82.5836","139.9854","348.4078","139.4741","0","999","4015","0.00012211","3.3e-07","0","1980161","0 COSMOS 2252","1 22687U 93038A   16014.50871950  .00000033  00000-0  12211-3 0  9991","2 22687  82.5836 139.9854 0007204 348.4078 139.4741 12.63235730 40156","1993-038A","22687","7787.754","113.992","1415.229","1404.008"
"GENERATED VIA SPACETRACK.ORG API","JSPOC","33376","GALAXY 19","PAYLOAD","U","08045A","2016-01-14 12:12:33","335424","1.00270815","0.000317","0.0252","74.7391","228.7617","256.0208","0","999","2666","0","-1.44e-06","0","1980231","0 GALAXY 19","1 33376U 08045A   16014.50871916 -.00000144  00000-0  00000+0 0  9997","2 33376   0.0252  74.7391 0003170 228.7617 256.0208  1.00270815 26665","2008-045A","33376","42165.003","1436.110","35800.235","35773.502"
"GENERATED VIA SPACETRACK.ORG API","JSPOC","26702","ODIN","PAYLOAD","U","01007A","2016-01-14 12:12:43","949664","15.06072537","0.0012202","97.6336","30.8419","32.4036","327.7937","0","999","81339","0.00018496","2.642e-05","0","1980141","0 ODIN","1 26702U 01007A   16014.50884201  .00002642  00000-0  18496-3 0  9990","2 26702  97.6336  30.8419 0012202  32.4036 327.7937 15.06072537813391","2001-007A","26702","6926.352","95.612","556.668","539.765"
"GENERATED VIA SPACETRACK.ORG API","JSPOC","25530","IRIDIUM 84","PAYLOAD","U","98066D","2016-01-14 12:12:53","327520","14.34219524","0.0002035","86.3948","207.1917","90.3702","269.7727","0","999","90251","-1.9426e-06","1.4e-07","0","1980253","0 IRIDIUM 84","1 25530U 98066D   16014.50895055  .00000014  00000-0 -19426-5 0  9996","2 25530  86.3948 207.1917 0002035  90.3702 269.7727 14.34219524902515","1998-066D","25530","7155.798","100.403","779.119","776.207"
"GENERATED VIA SPACETRACK.ORG API","JSPOC","26546","MEGSAT 1","PAYLOAD","U","00057B","2016-01-14 12:13:08","879520","14.89998728","0.0045376","64.5538","161.3647","288.7247","70.8941","0","999","82921","0.00011072","9.3e-06","0","1980159","0 MEGSAT 1","1 26546U 00057B   16014.50913055  .00000930  00000-0  11072-3 0  9991","2 26546  64.5538 161.3647 0045376 288.7247  70.8941 14.89998728829213","2000-057B","26546","6976.076","96.644","629.596","566.286"
"GENERATED VIA SPACETRACK.ORG API","JSPOC","3229","COSMOS 220","PAYLOAD","U","68040A","2016-01-14 12:13:20","13024","14.75753073","0.0038955","74.028","88.3771","254.8117","104.8747","0","999","54948","5.8774e-05","3.71e-06","0","1980131","0 COSMOS 220","1 03229U 68040A   16014.50925941  .00000371  00000-0  58774-4 0  9997","2 03229  74.0280  88.3771 0038955 254.8117 104.8747 14.75753073549484","1968-040A","3229","7020.898","97.577","670.113","615.413"
"GENERATED VIA SPACETRACK.ORG API","JSPOC","31792","COSMOS 2428","PAYLOAD","U","07029A","2016-01-14 12:13:37","83072","14.12449025","0.0010348","70.9581","62.5382","332.372","172.6172","0","999","44069","0.0001","1.37e-06","0","1980133","0 COSMOS 2428","1 31792U 07029A   16014.50945698  .00000137  00000-0  10000-3 0  9993","2 31792  70.9581  62.5382 0010348 332.3720 172.6172 14.12449025440697","2007-029A","31792","7229.140","101.950","858.485","843.524"
"GENERATED VIA SPACETRACK.ORG API","JSPOC","37154","COSMOS 2468","PAYLOAD","U","10043C","2016-01-14 12:13:49","806336","12.43620064","0.0014998","82.4627","285.3921","335.5053","24.5314","0","999","24275","0.0001297","2.8e-07","0","1980243","0 COSMOS 2468","1 37154U 10043C   16014.50960424  .00000028  00000-0  12970-3 0  9992","2 37154  82.4627 285.3921 0014998 335.5053  24.5314 12.43620064242753","2010-043C","37154","7869.431","115.790","1503.099","1479.493"
"GENERATED VIA SPACETRACK.ORG API","JSPOC","23606","CERISE","PAYLOAD","U","95033B","2016-01-14 12:13:52","637664","14.93321246","0.0004355","98.2393","284.4255","205.6725","154.4277","0","999","10910","0.00015339","1.545e-05","0","1980248","0 CERISE","1 23606U 95033B   16014.50963701  .00001545  00000-0  15339-3 0  9999","2 23606  98.2393 284.4255 0004355 205.6725 154.4277 14.93321246109103","1995-033B","23606","6965.725","96.429","590.623","584.556"
"GENERATED VIA SPACETRACK.ORG API","JSPOC","26957","TES","PAYLOAD","U","01049A","2016-01-14 12:14:10","635648","15.09038633","0.0040755","97.676","107.8998","2.4902","357.652","0","999","78000","0.00015074","2.363e-05","0","1980249","0 TES","1 26957U 01049A   16014.50984532  .00002363  00000-0  15074-3 0  9995","2 26957  97.6760 107.8998 0040755   2.4902 357.6520 15.09038633780007","2001-049A","26957","6917.273","95.424","567.329","510.946"
"GENERATED VIA SPACETRACK.ORG API","JSPOC","37875","YAOGAN 12","PAYLOAD","U","11066B","2016-01-14 12:14:13","985376","15.25222923","0.0004938","97.2492","82.4803","272.8757","210.9306","0","999","23281","0.00016489","4.073e-05","0","1980232","0 YAOGAN 12","1 37875U 11066B   16014.50988409  .00004073  00000-0  16489-3 0  9994","2 37875  97.2492  82.4803 0004938 272.8757 210.9306 15.25222923232812","2011-066B","37875","6868.253","94.412","493.509","486.726"
"GENERATED VIA SPACETRACK.ORG API","JSPOC","34839","YAOGAN 6","PAYLOAD","U","09021A","2016-01-14 12:14:17","731680","15.24282095","0.0030301","97.2188","80.0962","5.1894","107.8046","0","999","37338","9.1232e-05","2.185e-05","0","1980238","0 YAOGAN 6","1 34839U 09021A   16014.50992745  .00002185  00000-0  91232-4 0  9999","2 34839  97.2188  80.0962 0030301   5.1894 107.8046 15.24282095373381","2009-021A","34839","6871.079","94.470","513.764","472.123"
"GENERATED VIA SPACETRACK.ORG API","JSPOC","24946","IRIDIUM 33","PAYLOAD","U","97051C","2016-01-14 12:14:20","475744","14.33455768","0.0009511","86.3908","144.259","127.9833","278.4755","0","999","95959","6.2755e-05","1.93e-06","0","1980258","0 IRIDIUM 33","1 24946U 97051C   16014.50995921  .00000193  00000-0  62755-4 0  9991","2 24946  86.3908 144.2590 0009511 127.9833 278.4755 14.33455768959596","1997-051C","24946","7158.339","100.456","787.013","773.396"
"GENERATED VIA SPACETRACK.ORG API","JSPOC","1815","SCOUT X-4 R/B","ROCKET BODY","U","65101B","2016-01-14 12:14:21","846912","14.78264334","0.0004913","75.8471","190.0112","2.1954","357.9252","0","999","52569","0.00012398","8.82e-06","0","1980181","0 SCOUT X-4 R/B","1 01815U 65101B   16014.50997508  .00000882  00000-0  12398-3 0  9997","2 01815  75.8471 190.0112 0004913   2.1954 357.9252 14.78264334525693","1965-101B","1815","7012.945","97.411","638.255","631.364"
"GENERATED VIA SPACETRACK.ORG API","JSPOC","40980","FLOCK 2B 14","PAYLOAD","U","98067HN","2016-01-14 12:14:32","501760","15.64479505","0.0007485","51.6399","105.522","0.8441","359.2565","0","999","1540","0.00041753","0.00040679","0","1980198","0 FLOCK 2B 14","1 40980U 98067HN  16014.51009840  .00040679  00000-0  41753-3 0  9999","2 40980  51.6399 105.5220 0007485   0.8441 359.2565 15.64479505 15403","1998-067HN","40980","6752.873","92.043","379.792","369.683"
"GENERATED VIA SPACETRACK.ORG API","JSPOC","13758","SL-8 R/B","ROCKET BODY","U","83001B","2016-01-14 12:14:40","734816","13.78683682","0.0027495","82.9123","337.3018","2.3143","132.6994","0","999","66005","5.5211e-05","7.1e-07","0","1980139","0 SL-8 R/B","1 13758U 83001B   16014.51019369  .00000071  00000-0  55211-4 0  9998","2 13758  82.9123 337.3018 0027495   2.3143 132.6994 13.78683682660059","1983-001B","13758","7346.696","104.447","988.760","948.361"
"GENERATED VIA SPACETRACK.ORG API","JSPOC","24936","AMC-3 (GE-3)","PAYLOAD","U","97050A","2016-01-14 12:14:49","303104","1.00271067","0.000238","0.0285","296.9971","347.3083","305.7949","0","999","6727","0.0001","-2.77e-06","0","1980188","0 AMC-3 (GE-3)","1 24936U 97050A   16014.51029286 -.00000277  00000-0  10000-3 0  9991","2 24936   0.0285 296.9971 0002380 347.3083 305.7949  1.00271067 67278","1997-050A","24936","42164.933","1436.107","35796.833","35776.762"
